ONEWEB-0063             
1 45448U 20020AA  24095.61631777  .00000440  00000+0  12067-2 0  9992
2 45448  87.9034 180.8653 0002316  99.0867 261.0523 13.11417822197376
ONEWEB-0019             
1 45449U 20020AB  24095.51405218  .00000073  00000+0  16971-3 0  9992
2 45449  87.9040 180.8853 0002075 108.3107 251.8246 13.11421532197203
ONEWEB-0094             
1 45450U 20020AC  24095.57252829  .00001577  00000+0  40295-2 0  9993
2 45450  87.9234 165.7375 0002223  96.0779 264.0606 13.17639166200485
ONEWEB-0087             
1 45451U 20020AD  24095.47022602  .00000242  00000+0  64643-3 0  9999
2 45451  87.9028 180.8695 0001843  95.1532 264.9806 13.11415077197241
ONEWEB-0082             
1 45452U 20020AE  24095.47184716  .00000098  00000+0  23948-3 0  9997
2 45452  87.9033 180.8705 0001943 105.9149 254.2193 13.11414780197336
ONEWEB-0050             
1 45453U 20020AF  24095.35587683  .00002968  00000+0  31438-3 0  9996
2 45453  88.0025  46.8216 0003975  39.4623 320.6893 14.88834897220638
ONEWEB-0034             
1 45454U 20020AG  24095.49131207 -.00006199  00000+0 -17531-1 0  9997
2 45454  87.9033 180.8843 0002353  93.7314 266.4083 13.11444320197263
ONEWEB-0060             
1 45455U 20020AH  24095.49943454 -.00000434  00000+0 -12615-2 0  9998
2 45455  87.9039 180.8803 0002024  98.0849 262.0509 13.11418444197210
